[{"OBJECT_NAME":"GOES 18","OBJECT_ID":"2022-021A","EPOCH":"2026-04-05T12:45:51.592032","MEAN_MOTION":1.00270314,"ECCENTRICITY":6.374e-5,"INCLINATION":0.0483,"RA_OF_ASC_NODE":40.0599,"ARG_OF_PERICENTER":35.3456,"MEAN_ANOMALY":172.8934,"EPHEMERIS_TYPE":0,"CLASSIFICATION_TYPE":"U","NORAD_CAT_ID":51850,"ELEMENT_SET_NO":999,"REV_AT_EPOCH":586,"BSTAR":0,"MEAN_MOTION_DOT":9.8e-7,"MEAN_MOTION_DDOT":0},{"OBJECT_NAME":"GOES 19","OBJECT_ID":"2024-119A","EPOCH":"2026-04-05T12:23:19.527936","MEAN_MOTION":1.00271467,"ECCENTRICITY":0.00010326,"INCLINATION":0.0443,"RA_OF_ASC_NODE":41.5874,"ARG_OF_PERICENTER":22.6159,"MEAN_ANOMALY":240.2467,"EPHEMERIS_TYPE":0,"CLASSIFICATION_TYPE":"U","NORAD_CAT_ID":60133,"ELEMENT_SET_NO":999,"REV_AT_EPOCH":623,"BSTAR":0,"MEAN_MOTION_DOT":-2.47e-6,"MEAN_MOTION_DDOT":0}]
